     2.10           G: GLONASS NAV DATA                     RINEX VERSION / TYPE
teqc  2015Jun23                         20210806 01:25:47UTCPGM / RUN BY / DATE
Linux 2.4.21-27.ELsmp|Opteron|gcc -static|Linux x86_64|=+   COMMENT
  2021     7    13    1.490116119385D-08                    CORR TO SYSTEM TIME
                                                            END OF HEADER
14 21  7 14 10 45  0.0 6.644241511822D-05 0.000000000000D+00 3.780000000000D+04
   -2.357613769531D+04-1.777858734131D-01 9.313225746155D-10 0.000000000000D+00
    9.605538574219D+03 2.170286178589D-01-9.313225746155D-10-7.000000000000D+00
   -1.750954101562D+03 3.547898292542D+00-0.000000000000D+00 0.000000000000D+00
 5 21  7 14 10 45  0.0 7.532536983490D-05 9.094947017729D-13 3.780000000000D+04
    1.393303515625D+04-1.014601707458D+00 1.862645149231D-09 0.000000000000D+00
    1.847393945312D+04-1.080101013184D+00 4.656612873077D-09 1.000000000000D+00
    1.077150927734D+04 3.166431427002D+00 0.000000000000D+00 0.000000000000D+00
 4 21  7 14 10 45  0.0 9.573064744473D-05 1.818989403546D-12 3.780000000000D+04
   -4.561713867188D+02-2.248312950134D+00 1.862645149231D-09 0.000000000000D+00
    1.307022119141D+04-1.980938911438D+00 2.793967723846D-09 6.000000000000D+00
    2.192994970703D+04 1.134843826294D+00-9.313225746155D-10 0.000000000000D+00
15 21  7 14 10 45  0.0 1.026857644320D-04-0.000000000000D+00 3.780000000000D+04
   -1.293970214844D+04-2.195796966553D+00 0.000000000000D+00 0.000000000000D+00
    1.353003955078D+04 9.086055755615D-01-9.313225746155D-10 0.000000000000D+00
   -1.730300781250D+04 2.348506927490D+00 1.862645149231D-09 0.000000000000D+00
17 21  7 14 10 45  0.0 4.409598186612D-04 2.728484105319D-12 3.780000000000D+04
   -1.120742041016D+04 5.984830856323D-01 0.000000000000D+00 0.000000000000D+00
    1.193271972656D+04-2.616129875183D+00-9.313225746155D-10 4.000000000000D+00
   -1.954513769531D+04-1.944030761719D+00 1.862645149231D-09 0.000000000000D+00
18 21  7 14 10 45  0.0 8.337665349245D-05 9.094947017729D-13 3.780000000000D+04
   -7.147329101562D+03 3.800745010376D-01 1.862645149231D-09 0.000000000000D+00
    2.381088574219D+04-7.399711608887D-01 1.862645149231D-09-3.000000000000D+00
   -5.815284179688D+03-3.488349914551D+00 1.862645149231D-09 0.000000000000D+00
19 21  7 14 10 45  0.0-1.514628529549D-04-9.094947017729D-13 3.780000000000D+04
   -3.766557617188D+02-7.017326354980D-02 2.793967723846D-09 0.000000000000D+00
    2.336744287109D+04 1.418414115906D+00 3.725290298462D-09 3.000000000000D+00
    1.020533544922D+04-3.248473167419D+00 0.000000000000D+00 0.000000000000D+00
14 21  7 14 11 15  0.0 6.644334644079D-05 0.000000000000D+00 3.960000000000D+04
   -2.315862500000D+04 6.222839355469D-01 9.313225746155D-10 0.000000000000D+00
    9.679971679688D+03-1.698255538940D-01-9.313225746155D-10-7.000000000000D+00
    4.620465332031D+03 3.485548973083D+00-9.313225746155D-10 0.000000000000D+00
 5 21  7 14 11 15  0.0 7.532723248005D-05 9.094947017729D-13 3.960000000000D+04
    1.142970556641D+04-1.762460708618D+00 2.793967723846D-09 0.000000000000D+00
    1.629149023438D+04-1.299757003784D+00 3.725290298462D-09 1.000000000000D+00
    1.598189550781D+04 2.585377693176D+00-0.000000000000D+00 0.000000000000D+00
15 21  7 14 11 15  0.0 1.026848331094D-04-0.000000000000D+00 3.960000000000D+04
   -1.624325976562D+04-1.456387519836D+00 9.313225746155D-10 0.000000000000D+00
    1.520083398438D+04 9.060239791870D-01-9.313225746155D-10 0.000000000000D+00
   -1.246042968750D+04 2.997087478638D+00 9.313225746155D-10 0.000000000000D+00
17 21  7 14 11 15  0.0 4.409654065967D-04 2.728484105319D-12 3.960000000000D+04
   -1.045665087891D+04 2.126684188843D-01-9.313225746155D-10 0.000000000000D+00
    6.797842773438D+03-3.043403625488D+00-1.862645149231D-09 4.000000000000D+00
   -2.224266455078D+04-1.033849716187D+00 1.862645149231D-09 0.000000000000D+00
18 21  7 14 11 15  0.0 8.337944746017D-05 9.094947017729D-13 3.960000000000D+04
   -6.498726562500D+03 2.991380691528D-01 9.313225746155D-10 0.000000000000D+00
    2.168910986328D+04-1.602187156677D+00 0.000000000000D+00-3.000000000000D+00
   -1.178911669922D+04-3.106214523315D+00 1.862645149231D-09 0.000000000000D+00
19 21  7 14 11 15  0.0-1.514656469226D-04-9.094947017729D-13 3.960000000000D+04
   -2.205351562500D+02 2.056808471680D-01 2.793967723846D-09 0.000000000000D+00
    2.518031054688D+04 5.735950469971D-01 2.793967723846D-09 3.000000000000D+00
    4.038832519531D+03-3.558662414551D+00 9.313225746155D-10 0.000000000000D+00
 4 21  7 14 11 15  0.0 9.573437273502D-05 1.818989403546D-12 3.966000000000D+04
   -4.897894042969D+03-2.650338172913D+00 1.862645149231D-09 0.000000000000D+00
    9.712369628906D+03-1.713557243347D+00 9.313225746155D-10 6.000000000000D+00
    2.310129101562D+04 1.582403182983D-01-1.862645149231D-09 0.000000000000D+00
16 21  7 14 11 15  0.0-1.787301152945D-05-0.000000000000D+00 4.014000000000D+04
    1.939511230469D+03-2.701761245728D+00 0.000000000000D+00 0.000000000000D+00
    1.154284619141D+04 1.518990516663D+00-0.000000000000D+00-1.000000000000D+00
   -2.266838232422D+04 5.542097091675D-01 2.793967723846D-09 0.000000000000D+00
14 21  7 14 11 45  0.0 6.644520908594D-05 0.000000000000D+00 4.140000000000D+04
   -2.143483593750D+04 1.258460044861D+00 0.000000000000D+00 0.000000000000D+00
    8.885983886719D+03-7.358245849609D-01-9.313225746155D-10-7.000000000000D+00
    1.063518847656D+04 3.154175758362D+00-1.862645149231D-09 0.000000000000D+00
 5 21  7 14 11 45  0.0 7.532909512520D-05 9.094947017729D-13 4.140000000000D+04
    7.638555175781D+03-2.426672935486D+00 2.793967723846D-09 0.000000000000D+00
    1.395479248047D+04-1.254314422607D+00 2.793967723846D-09 1.000000000000D+00
    1.995888720703D+04 1.804867744446D+00-9.313225746155D-10 0.000000000000D+00
15 21  7 14 11 45  0.0 1.026839017868D-04-0.000000000000D+00 4.140000000000D+04
   -1.815055468750D+04-6.635646820068D-01 9.313225746155D-10 0.000000000000D+00
    1.663666406250D+04 6.465377807617D-01-9.313225746155D-10 0.000000000000D+00
   -6.653246582031D+03 3.413357734680D+00 0.000000000000D+00 0.000000000000D+00
16 21  7 14 11 45  0.0-1.787394285202D-05-0.000000000000D+00 4.140000000000D+04
   -2.554710449219D+03-2.256968498230D+00 0.000000000000D+00 0.000000000000D+00
    1.450593115234D+04 1.736923217773D+00-0.000000000000D+00-1.000000000000D+00
   -2.080726562500D+04 1.500623703003D+00 1.862645149231D-09 0.000000000000D+00
18 21  7 14 11 45  0.0 8.338224142790D-05 9.094947017729D-13 4.140000000000D+04
   -6.206940429688D+03-7.906913757324D-03 9.313225746155D-10 0.000000000000D+00
    1.813202001953D+04-2.316796302795D+00-0.000000000000D+00-3.000000000000D+00
   -1.685333349609D+04-2.484163284302D+00 1.862645149231D-09 0.000000000000D+00
19 21  7 14 11 45  0.0-1.514675095677D-04-9.094947017729D-13 4.140000000000D+04
    2.155961914062D+02 2.360811233521D-01 2.793967723846D-09 0.000000000000D+00
    2.538710400391D+04-3.462829589844D-01 9.313225746155D-10 3.000000000000D+00
   -2.440188964844D+03-3.593472480774D+00 9.313225746155D-10 0.000000000000D+00
20 21  7 14 11 45  0.0-5.247257649899D-05-0.000000000000D+00 4.194000000000D+04
    8.177333984375D+03 2.952919006348D-01 3.725290298462D-09 0.000000000000D+00
    1.774840478516D+04 2.238747596741D+00 2.793967723846D-09 2.000000000000D+00
    1.641701464844D+04-2.563829421997D+00-0.000000000000D+00 0.000000000000D+00
14 21  7 14 12 15  0.0 6.644614040852D-05 0.000000000000D+00 4.320000000000D+04
   -1.877179394531D+04 1.656626701355D+00 0.000000000000D+00 0.000000000000D+00
    6.975451171875D+03-1.393737792969D+00-9.313225746155D-10-7.000000000000D+00
    1.582915917969D+04 2.579531669617D+00-1.862645149231D-09 0.000000000000D+00
20 21  7 14 12 15  0.0-5.247350782156D-05-0.000000000000D+00 4.320000000000D+04
    8.927177246094D+03 5.000772476196D-01 3.725290298462D-09 0.000000000000D+00
    2.111416210938D+04 1.473161697388D+00 1.862645149231D-09 2.000000000000D+00
    1.122811230469D+04-3.164217948914D+00 0.000000000000D+00 0.000000000000D+00
 5 21  7 14 12 15  0.0 7.533188909292D-05 9.094947017729D-13 4.320000000000D+04
    2.807395507812D+03-2.902269363403D+00 2.793967723846D-09 0.000000000000D+00
    1.191251269531D+04-9.825706481934D-01 9.313225746155D-10 1.000000000000D+00
    2.239560693359D+04 8.850326538086D-01-1.862645149231D-09 0.000000000000D+00
15 21  7 14 12 15  0.0 1.026839017868D-04-0.000000000000D+00 4.320000000000D+04
   -1.866866796875D+04 6.877326965332D-02 0.000000000000D+00 0.000000000000D+00
    1.738344628906D+04 1.469669342041D-01-1.862645149231D-09 0.000000000000D+00
   -3.313081054688D+02 3.565378189087D+00-9.313225746155D-10 0.000000000000D+00
16 21  7 14 12 15  0.0-1.787487417459D-05-9.094947017729D-13 4.320000000000D+04
   -6.087650878906D+03-1.649745941162D+00 0.000000000000D+00 0.000000000000D+00
    1.764748242188D+04 1.709061622620D+00-9.313225746155D-10-1.000000000000D+00
   -1.733484521484D+04 2.332801818848D+00 1.862645149231D-09 0.000000000000D+00
18 21  7 14 12 15  0.0 8.338503539562D-05 9.094947017729D-13 4.320000000000D+04
   -6.621488769531D+03-4.711160659790D-01-0.000000000000D+00 0.000000000000D+00
    1.349420556641D+04-2.790052413940D+00-9.313225746155D-10-3.000000000000D+00
   -2.061645947266D+04-1.669874191284D+00 1.862645149231D-09 0.000000000000D+00
19 21  7 14 12 15  0.0-1.514703035355D-04-9.094947017729D-13 4.320000000000D+04
    4.777666015625D+02 1.540660858154D-02 1.862645149231D-09 0.000000000000D+00
    2.396168896484D+04-1.219756126404D+00 0.000000000000D+00 3.000000000000D+00
   -8.730455078125D+03-3.350322723389D+00 1.862645149231D-09 0.000000000000D+00
20 21  7 14 12 45  0.0-5.247443914413D-05-0.000000000000D+00 4.500000000000D+04
    9.828594726562D+03 4.580087661743D-01 3.725290298462D-09 0.000000000000D+00
    2.298526513672D+04 5.972261428833D-01 9.313225746155D-10 2.000000000000D+00
    5.172777343750D+03-3.520322799683D+00 9.313225746155D-10 0.000000000000D+00
